CCSDS_OMM_VERS = 2.0
CREATION_DATE  = 
ORIGINATOR     = 

OBJECT_NAME    = SL-4 R/B
OBJECT_ID      = 2014-021B
CENTER_NAME    = EARTH
REF_FRAME      = TEME
TIME_SYSTEM    = UTC
MEAN_ELEMENT_THEORY = SGP/SGP4

EPOCH          = 2026-02-12T13:25:47.317152
MEAN_MOTION    = 15.38350839
ECCENTRICITY   = .0098883
INCLINATION    = 51.6071
RA_OF_ASC_NODE = 99.7923
ARG_OF_PERICENTER = 11.4000
MEAN_ANOMALY   = 348.9191

EPHEMERIS_TYPE = 0
CLASSIFICATION_TYPE = U
NORAD_CAT_ID   = 39679
ELEMENT_SET_NO = 999
REV_AT_EPOCH   = 65240
BSTAR          = .29890236E-3
MEAN_MOTION_DOT = .13159E-3
MEAN_MOTION_DDOT = 0

CCSDS_OMM_VERS = 2.0
CREATION_DATE  = 
ORIGINATOR     = 

OBJECT_NAME    = ALOS-2
OBJECT_ID      = 2014-029A
CENTER_NAME    = EARTH
REF_FRAME      = TEME
TIME_SYSTEM    = UTC
MEAN_ELEMENT_THEORY = SGP/SGP4

EPOCH          = 2026-02-12T13:25:34.281984
MEAN_MOTION    = 14.79449384
ECCENTRICITY   = .0001546
INCLINATION    = 97.9207
RA_OF_ASC_NODE = 142.5190
ARG_OF_PERICENTER = 106.9705
MEAN_ANOMALY   = 253.1676

EPHEMERIS_TYPE = 0
CLASSIFICATION_TYPE = U
NORAD_CAT_ID   = 39766
ELEMENT_SET_NO = 999
REV_AT_EPOCH   = 63315
BSTAR          = .10508655E-3
MEAN_MOTION_DOT = .733E-5
MEAN_MOTION_DDOT = 0

CCSDS_OMM_VERS = 2.0
CREATION_DATE  = 
ORIGINATOR     = 

OBJECT_NAME    = YAOGAN-29
OBJECT_ID      = 2015-069A
CENTER_NAME    = EARTH
REF_FRAME      = TEME
TIME_SYSTEM    = UTC
MEAN_ELEMENT_THEORY = SGP/SGP4

EPOCH          = 2026-02-12T15:03:02.468160
MEAN_MOTION    = 14.82966960
ECCENTRICITY   = .00028436
INCLINATION    = 98.0177
RA_OF_ASC_NODE = 71.9870
ARG_OF_PERICENTER = 78.3011
MEAN_ANOMALY   = 281.8521

EPHEMERIS_TYPE = 0
CLASSIFICATION_TYPE = U
NORAD_CAT_ID   = 41038
ELEMENT_SET_NO = 999
REV_AT_EPOCH   = 55216
BSTAR          = .10694558E-3
MEAN_MOTION_DOT = .814E-5
MEAN_MOTION_DDOT = 0

CCSDS_OMM_VERS = 2.0
CREATION_DATE  = 
ORIGINATOR     = 

OBJECT_NAME    = ASTRO-H (HITOMI)
OBJECT_ID      = 2016-012A
CENTER_NAME    = EARTH
REF_FRAME      = TEME
TIME_SYSTEM    = UTC
MEAN_ELEMENT_THEORY = SGP/SGP4

EPOCH          = 2026-02-12T13:54:37.783872
MEAN_MOTION    = 15.09821191
ECCENTRICITY   = .00098116
INCLINATION    = 30.9982
RA_OF_ASC_NODE = 158.5629
ARG_OF_PERICENTER = 80.1308
MEAN_ANOMALY   = 280.0437

EPHEMERIS_TYPE = 0
CLASSIFICATION_TYPE = U
NORAD_CAT_ID   = 41337
ELEMENT_SET_NO = 999
REV_AT_EPOCH   = 54843
BSTAR          = .2089304E-3
MEAN_MOTION_DOT = .3559E-4
MEAN_MOTION_DDOT = 0

CCSDS_OMM_VERS = 2.0
CREATION_DATE  = 
ORIGINATOR     = 

OBJECT_NAME    = HXMT (HUIYAN)
OBJECT_ID      = 2017-034A
CENTER_NAME    = EARTH
REF_FRAME      = TEME
TIME_SYSTEM    = UTC
MEAN_ELEMENT_THEORY = SGP/SGP4

EPOCH          = 2026-02-12T15:07:59.651328
MEAN_MOTION    = 15.17132312
ECCENTRICITY   = .00307008
INCLINATION    = 43.0132
RA_OF_ASC_NODE = 155.9551
ARG_OF_PERICENTER = 75.5975
MEAN_ANOMALY   = 284.8277

EPHEMERIS_TYPE = 0
CLASSIFICATION_TYPE = U
NORAD_CAT_ID   = 42758
ELEMENT_SET_NO = 999
REV_AT_EPOCH   = 47873
BSTAR          = .34761747E-3
MEAN_MOTION_DOT = .6868E-4
MEAN_MOTION_DDOT = 0

CCSDS_OMM_VERS = 2.0
CREATION_DATE  = 
ORIGINATOR     = 

OBJECT_NAME    = CZ-2C R/B
OBJECT_ID      = 2018-054D
CENTER_NAME    = EARTH
REF_FRAME      = TEME
TIME_SYSTEM    = UTC
MEAN_ELEMENT_THEORY = SGP/SGP4

EPOCH          = 2026-02-12T13:42:08.663040
MEAN_MOTION    = 15.99506526
ECCENTRICITY   = .00121104
INCLINATION    = 35.1286
RA_OF_ASC_NODE = 115.5504
ARG_OF_PERICENTER = 61.8661
MEAN_ANOMALY   = 298.3303

EPHEMERIS_TYPE = 0
CLASSIFICATION_TYPE = U
NORAD_CAT_ID   = 43521
ELEMENT_SET_NO = 999
REV_AT_EPOCH   = 42486
BSTAR          = .8529029E-3
MEAN_MOTION_DOT = .449639E-2
MEAN_MOTION_DDOT = .85219848E-4

CCSDS_OMM_VERS = 2.0
CREATION_DATE  = 
ORIGINATOR     = 

OBJECT_NAME    = SAOCOM 1A
OBJECT_ID      = 2018-076A
CENTER_NAME    = EARTH
REF_FRAME      = TEME
TIME_SYSTEM    = UTC
MEAN_ELEMENT_THEORY = SGP/SGP4

EPOCH          = 2026-02-12T15:31:00.555744
MEAN_MOTION    = 14.82139696
ECCENTRICITY   = .0001369
INCLINATION    = 97.8880
RA_OF_ASC_NODE = 232.1747
ARG_OF_PERICENTER = 88.6959
MEAN_ANOMALY   = 271.4411

EPHEMERIS_TYPE = 0
CLASSIFICATION_TYPE = U
NORAD_CAT_ID   = 43641
ELEMENT_SET_NO = 999
REV_AT_EPOCH   = 39765
BSTAR          = .71705E-4
MEAN_MOTION_DOT = .518E-5
MEAN_MOTION_DDOT = 0

CCSDS_OMM_VERS = 2.0
CREATION_DATE  = 
ORIGINATOR     = 

OBJECT_NAME    = H-2A R/B
OBJECT_ID      = 2018-084L
CENTER_NAME    = EARTH
REF_FRAME      = TEME
TIME_SYSTEM    = UTC
MEAN_ELEMENT_THEORY = SGP/SGP4

EPOCH          = 2026-02-12T12:50:03.333120
MEAN_MOTION    = 15.40235826
ECCENTRICITY   = .00262977
INCLINATION    = 98.8760
RA_OF_ASC_NODE = 255.5674
ARG_OF_PERICENTER = 109.5966
MEAN_ANOMALY   = 250.8118

EPHEMERIS_TYPE = 0
CLASSIFICATION_TYPE = U
NORAD_CAT_ID   = 43682
ELEMENT_SET_NO = 999
REV_AT_EPOCH   = 40190
BSTAR          = .485958E-3
MEAN_MOTION_DOT = .19694E-3
MEAN_MOTION_DDOT = 0

CCSDS_OMM_VERS = 2.0
CREATION_DATE  = 
ORIGINATOR     = 

OBJECT_NAME    = SAOCOM 1B
OBJECT_ID      = 2020-059A
CENTER_NAME    = EARTH
REF_FRAME      = TEME
TIME_SYSTEM    = UTC
MEAN_ELEMENT_THEORY = SGP/SGP4

EPOCH          = 2026-02-12T14:38:49.589952
MEAN_MOTION    = 14.82144025
ECCENTRICITY   = .00014494
INCLINATION    = 97.8874
RA_OF_ASC_NODE = 231.2360
ARG_OF_PERICENTER = 88.1827
MEAN_ANOMALY   = 271.9552

EPHEMERIS_TYPE = 0
CLASSIFICATION_TYPE = U
NORAD_CAT_ID   = 46265
ELEMENT_SET_NO = 999
REV_AT_EPOCH   = 29503
BSTAR          = .11082212E-3
MEAN_MOTION_DOT = .83E-5
MEAN_MOTION_DDOT = 0

CCSDS_OMM_VERS = 2.0
CREATION_DATE  = 
ORIGINATOR     = 

OBJECT_NAME    = CSS (TIANHE)
OBJECT_ID      = 2021-035A
CENTER_NAME    = EARTH
REF_FRAME      = TEME
TIME_SYSTEM    = UTC
MEAN_ELEMENT_THEORY = SGP/SGP4

EPOCH          = 2026-02-12T08:46:17.567904
MEAN_MOTION    = 15.59540368
ECCENTRICITY   = .00041773
INCLINATION    = 41.4683
RA_OF_ASC_NODE = 2.1188
ARG_OF_PERICENTER = 70.2177
MEAN_ANOMALY   = 289.9112

EPHEMERIS_TYPE = 0
CLASSIFICATION_TYPE = U
NORAD_CAT_ID   = 48274
ELEMENT_SET_NO = 999
REV_AT_EPOCH   = 27365
BSTAR          = .30901091E-3
MEAN_MOTION_DOT = .25006E-3
MEAN_MOTION_DDOT = 0

CCSDS_OMM_VERS = 2.0
CREATION_DATE  = 
ORIGINATOR     = 

OBJECT_NAME    = COSMOS 2550
OBJECT_ID      = 2021-056A
CENTER_NAME    = EARTH
REF_FRAME      = TEME
TIME_SYSTEM    = UTC
MEAN_ELEMENT_THEORY = SGP/SGP4

EPOCH          = 2026-02-12T14:35:34.378656
MEAN_MOTION    = 15.33832084
ECCENTRICITY   = .0008305
INCLINATION    = 67.1426
RA_OF_ASC_NODE = 116.8005
ARG_OF_PERICENTER = 269.4788
MEAN_ANOMALY   = 90.5415

EPHEMERIS_TYPE = 0
CLASSIFICATION_TYPE = U
NORAD_CAT_ID   = 48865
ELEMENT_SET_NO = 999
REV_AT_EPOCH   = 25961
BSTAR          = .44027E-5
MEAN_MOTION_DOT = -.47E-6
MEAN_MOTION_DDOT = 0

CCSDS_OMM_VERS = 2.0
CREATION_DATE  = 
ORIGINATOR     = 

OBJECT_NAME    = CZ-2C R/B
OBJECT_ID      = 2022-058K
CENTER_NAME    = EARTH
REF_FRAME      = TEME
TIME_SYSTEM    = UTC
MEAN_ELEMENT_THEORY = SGP/SGP4

EPOCH          = 2026-02-12T11:42:01.907712
MEAN_MOTION    = 15.52448308
ECCENTRICITY   = .00422239
INCLINATION    = 50.1888
RA_OF_ASC_NODE = 87.7494
ARG_OF_PERICENTER = 93.6004
MEAN_ANOMALY   = 266.9796

EPHEMERIS_TYPE = 0
CLASSIFICATION_TYPE = U
NORAD_CAT_ID   = 52794
ELEMENT_SET_NO = 999
REV_AT_EPOCH   = 20621
BSTAR          = .55266934E-3
MEAN_MOTION_DOT = .35462E-3
MEAN_MOTION_DDOT = 0

