SL-4 R/B                
1 39679U 14021B   26043.55957543  .00013159  00000+0  29890-3 0  9999
2 39679  51.6071  99.7923 0098883  11.4000 348.9191 15.38350839652404
ALOS-2                  
1 39766U 14029A   26043.55942456  .00000733  00000+0  10509-3 0  9992
2 39766  97.9207 142.5190 0001546 106.9705 253.1676 14.79449384633154
YAOGAN-29               
1 41038U 15069A   26043.62711190  .00000814  00000+0  10695-3 0  9995
2 41038  98.0177  71.9870 0002843  78.3011 281.8521 14.82966960552166
ASTRO-H (HITOMI)        
1 41337U 16012A   26043.57960398  .00003559  00000+0  20893-3 0  9996
2 41337  30.9982 158.5629 0009811  80.1308 280.0437 15.09821191548431
HXMT (HUIYAN)           
1 42758U 17034A   26043.63055152  .00006868  00000+0  34762-3 0  9995
2 42758  43.0132 155.9551 0030700  75.5975 284.8277 15.17132312478733
CZ-2C R/B               
1 43521U 18054D   26043.57093360  .00449639  85220-4  85290-3 0  9994
2 43521  35.1286 115.5504 0012110  61.8661 298.3303 15.99506526424866
SAOCOM 1A               
1 43641U 18076A   26043.64653421  .00000518  00000+0  71705-4 0  9993
2 43641  97.8880 232.1747 0001369  88.6959 271.4411 14.82139696397659
H-2A R/B                
1 43682U 18084L   26043.53476080  .00019694  00000+0  48596-3 0  9995
2 43682  98.8760 255.5674 0026297 109.5966 250.8118 15.40235826401904
SAOCOM 1B               
1 46265U 20059A   26043.61029618  .00000830  00000+0  11082-3 0  9992
2 46265  97.8874 231.2360 0001449  88.1827 271.9552 14.82144025295038
CSS (TIANHE)            
1 48274U 21035A   26043.36548111  .00025006  00000+0  30901-3 0  9998
2 48274  41.4683   2.1188 0004177  70.2177 289.9112 15.59540368273657
COSMOS 2550             
1 48865U 21056A   26043.60803679 -.00000047  00000+0  44027-5 0  9992
2 48865  67.1426 116.8005 0008305 269.4788  90.5415 15.33832084259614
CZ-2C R/B               
1 52794U 22058K   26043.48752208  .00035462  00000+0  55267-3 0  9992
2 52794  50.1888  87.7494 0042223  93.6004 266.9796 15.52448308206219
